CTC1_L_00666001-01
1 40580U 24640MU  26037.47810185  .00000000  00000+0  00000-0 0  9994
2 40580  65.0000   0.0000 0000000   0.0000   0.0000  2.02645302    15
CTC1_L_00666001-02
1 40581U 22900BC  26037.47810185  .00000000  00000+0  00000-0 0  9992
2 40581  65.0000   0.0000 0000000   0.0000  36.0000  2.02645302    15
CTC1_L_00666001-03
1 40582U 23435WC  26037.47810185  .00000000  00000+0  00000-0 0  9997
2 40582  65.0000   0.0000 0000000   0.0000  72.0000  2.02645302    16
CTC1_L_00666001-04
1 40583U 24558VF  26037.47810185  .00000000  00000+0  00000-0 0  9995
2 40583  65.0000   0.0000 0000000   0.0000 108.0000  2.02645302    17
CTC1_L_00666001-05
1 40584U 26874F   26037.47810185  .00000000  00000+0  00000-0 0  9999
2 40584  65.0000   0.0000 0000000   0.0000 144.0000  2.02645302    18
CTC1_L_00666001-06
1 40585U 23033O   26037.47810185  .00000000  00000+0  00000-0 0  9994
2 40585  65.0000   0.0000 0000000   0.0000 180.0000  2.02645302    19
CTC1_L_00666001-07
1 40586U 26646WU  26037.47810185  .00000000  00000+0  00000-0 0  9998
2 40586  65.0000   0.0000 0000000   0.0000 216.0000  2.02645302    10
CTC1_L_00666001-08
1 40587U 26427MO  26037.47810185  .00000000  00000+0  00000-0 0  9996
2 40587  65.0000   0.0000 0000000   0.0000 252.0000  2.02645302    11
CTC1_L_00666001-09
1 40588U 22015NC  26037.47810185  .00000000  00000+0  00000-0 0  9996
2 40588  65.0000   0.0000 0000000   0.0000 288.0000  2.02645302    11
CTC1_L_00666001-10
1 40589U 22037GY  26037.47810185  .00000000  00000+0  00000-0 0  9991
2 40589  65.0000   0.0000 0000000   0.0000 324.0000  2.02645302    13
CTC1_L_00666002-01
1 40590U 23968ZS  26037.47810185  .00000000  00000+0  00000-0 0  9997
2 40590  65.0000  30.0000 0000000   0.0000  12.0000  2.02645302    12
CTC1_L_00666002-02
1 40591U 23109CR  26037.47810185  .00000000  00000+0  00000-0 0  9995
2 40591  65.0000  30.0000 0000000   0.0000  48.0000  2.02645302    12
CTC1_L_00666002-03
1 40592U 26791XC  26037.47810185  .00000000  00000+0  00000-0 0  9996
2 40592  65.0000  30.0000 0000000   0.0000  84.0000  2.02645302    13
CTC1_L_00666002-04
1 40593U 26946XC  26037.47810185  .00000000  00000+0  00000-0 0  9999
2 40593  65.0000  30.0000 0000000   0.0000 120.0000  2.02645302    15
CTC1_L_00666002-05
1 40594U 23387JG  26037.47810185  .00000000  00000+0  00000-0 0  9996
2 40594  65.0000  30.0000 0000000   0.0000 156.0000  2.02645302    15
CTC1_L_00666002-06
1 40595U 22679DC  26037.47810185  .00000000  00000+0  00000-0 0  9990
2 40595  65.0000  30.0000 0000000   0.0000 192.0000  2.02645302    16
CTC1_L_00666002-07
1 40596U 26636AW  26037.47810185  .00000000  00000+0  00000-0 0  9998
2 40596  65.0000  30.0000 0000000   0.0000 228.0000  2.02645302    17
CTC1_L_00666002-08
1 40597U 26081FR  26037.47810185  .00000000  00000+0  00000-0 0  9993
2 40597  65.0000  30.0000 0000000   0.0000 264.0000  2.02645302    18
CTC1_L_00666002-09
1 40598U 24918UF  26037.47810185  .00000000  00000+0  00000-0 0  9991
2 40598  65.0000  30.0000 0000000   0.0000 300.0000  2.02645302    10
CTC1_L_00666002-10
1 40599U 26322AT  26037.47810185  .00000000  00000+0  00000-0 0  9993
2 40599  65.0000  30.0000 0000000   0.0000 336.0000  2.02645302    10
CTC1_L_00666003-01
1 40600U 22498GP  26037.47810185  .00000000  00000+0  00000-0 0  9996
2 40600  65.0000  60.0000 0000000   0.0000  24.0000  2.02645302    10
CTC1_L_00666003-02
1 40601U 24003YL  26037.47810185  .00000000  00000+0  00000-0 0  9991
2 40601  65.0000  60.0000 0000000   0.0000  60.0000  2.02645302    11
CTC1_L_00666003-03
1 40602U 25576RQ  26037.47810185  .00000000  00000+0  00000-0 0  9998
2 40602  65.0000  60.0000 0000000   0.0000  96.0000  2.02645302    11
CTC1_L_00666003-04
1 40603U 26937GI  26037.47810185  .00000000  00000+0  00000-0 0  9991
2 40603  65.0000  60.0000 0000000   0.0000 132.0000  2.02645302    13
CTC1_L_00666003-05
1 40604U 26770YV  26037.47810185  .00000000  00000+0  00000-0 0  9997
2 40604  65.0000  60.0000 0000000   0.0000 168.0000  2.02645302    13
CTC1_L_00666003-06
1 40605U 23204B   26037.47810185  .00000000  00000+0  00000-0 0  9997
2 40605  65.0000  60.0000 0000000   0.0000 204.0000  2.02645302    15
CTC1_L_00666003-07
1 40606U 24420HF  26037.47810185  .00000000  00000+0  00000-0 0  9999
2 40606  65.0000  60.0000 0000000   0.0000 240.0000  2.02645302    16
CTC1_L_00666003-08
1 40607U 26067OW  26037.47810185  .00000000  00000+0  00000-0 0  9999
2 40607  65.0000  60.0000 0000000   0.0000 276.0000  2.02645302    16
CTC1_L_00666003-09
1 40608U 26326BR  26037.47810185  .00000000  00000+0  00000-0 0  9998
2 40608  65.0000  60.0000 0000000   0.0000 312.0000  2.02645302    18
CTC1_L_00666003-10
1 40609U 23858JH  26037.47810185  .00000000  00000+0  00000-0 0  9996
2 40609  65.0000  60.0000 0000000   0.0000 348.0000  2.02645302    18
CTC1_L_00666004-01
1 40610U 22199AO  26037.47810185  .00000000  00000+0  00000-0 0  9995
2 40610  65.0000  90.0000 0000000   0.0000  36.0000  2.02645302    17
CTC1_L_00666004-02
1 40611U 26315HS  26037.47810185  .00000000  00000+0  00000-0 0  9990
2 40611  65.0000  90.0000 0000000   0.0000  72.0000  2.02645302    18
CTC1_L_00666004-03
1 40612U 23173J   26037.47810185  .00000000  00000+0  00000-0 0  9990
2 40612  65.0000  90.0000 0000000   0.0000 108.0000  2.02645302    19
CTC1_L_00666004-04
1 40613U 24459ZM  26037.47810185  .00000000  00000+0  00000-0 0  9999
2 40613  65.0000  90.0000 0000000   0.0000 144.0000  2.02645302    10
CTC1_L_00666004-05
1 40614U 24183GG  26037.47810185  .00000000  00000+0  00000-0 0  9994
2 40614  65.0000  90.0000 0000000   0.0000 180.0000  2.02645302    11
CTC1_L_00666004-06
1 40615U 24712AI  26037.47810185  .00000000  00000+0  00000-0 0  9993
2 40615  65.0000  90.0000 0000000   0.0000 216.0000  2.02645302    12
CTC1_L_00666004-07
1 40616U 25882QZ  26037.47810185  .00000000  00000+0  00000-0 0  9993
2 40616  65.0000  90.0000 0000000   0.0000 252.0000  2.02645302    13
CTC1_L_00666004-08
1 40617U 23517DG  26037.47810185  .00000000  00000+0  00000-0 0  9997
2 40617  65.0000  90.0000 0000000   0.0000 288.0000  2.02645302    13
CTC1_L_00666004-09
1 40618U 22748XX  26037.47810185  .00000000  00000+0  00000-0 0  9993
2 40618  65.0000  90.0000 0000000   0.0000 324.0000  2.02645302    15
CTC1_L_00666004-10
1 40619U 25266XM  26037.47810185  .00000000  00000+0  00000-0 0  9992
2 40619  65.0000  90.0000 0000000   0.0000   0.0000  2.02645302    17
CTC1_L_00666005-01
1 40620U 22337XX  26037.47810185  .00000000  00000+0  00000-0 0  9990
2 40620  65.0000 120.0000 0000000   0.0000  48.0000  2.02645302    15
CTC1_L_00666005-02
1 40621U 26460LV  26037.47810185  .00000000  00000+0  00000-0 0  9992
2 40621  65.0000 120.0000 0000000   0.0000  84.0000  2.02645302    16
CTC1_L_00666005-03
1 40622U 23727NH  26037.47810185  .00000000  00000+0  00000-0 0  9996
2 40622  65.0000 120.0000 0000000   0.0000 120.0000  2.02645302    18
CTC1_L_00666005-04
1 40623U 26712IN  26037.47810185  .00000000  00000+0  00000-0 0  9994
2 40623  65.0000 120.0000 0000000   0.0000 156.0000  2.02645302    18
CTC1_L_00666005-05
1 40624U 25112NB  26037.47810185  .00000000  00000+0  00000-0 0  9998
2 40624  65.0000 120.0000 0000000   0.0000 192.0000  2.02645302    19
CTC1_L_00666005-06
1 40625U 26724WW  26037.47810185  .00000000  00000+0  00000-0 0  9999
2 40625  65.0000 120.0000 0000000   0.0000 228.0000  2.02645302    10
CTC1_L_00666005-07
1 40626U 26216RF  26037.47810185  .00000000  00000+0  00000-0 0  9996
2 40626  65.0000 120.0000 0000000   0.0000 264.0000  2.02645302    11
CTC1_L_00666005-08
1 40627U 24784LB  26037.47810185  .00000000  00000+0  00000-0 0  9995
2 40627  65.0000 120.0000 0000000   0.0000 300.0000  2.02645302    13
CTC1_L_00666005-09
1 40628U 26115AJ  26037.47810185  .00000000  00000+0  00000-0 0  9996
2 40628  65.0000 120.0000 0000000   0.0000 336.0000  2.02645302    13
CTC1_L_00666005-10
1 40629U 24141DH  26037.47810185  .00000000  00000+0  00000-0 0  9994
2 40629  65.0000 120.0000 0000000   0.0000  12.0000  2.02645302    15
CTC1_L_00666006-01
1 40630U 24308US  26037.47810185  .00000000  00000+0  00000-0 0  9991
2 40630  65.0000 150.0000 0000000   0.0000  60.0000  2.02645302    13
CTC1_L_00666006-02
1 40631U 22404YD  26037.47810185  .00000000  00000+0  00000-0 0  9997
2 40631  65.0000 150.0000 0000000   0.0000  96.0000  2.02645302    13
CTC1_L_00666006-03
1 40632U 24200GZ  26037.47810185  .00000000  00000+0  00000-0 0  9994
2 40632  65.0000 150.0000 0000000   0.0000 132.0000  2.02645302    15
CTC1_L_00666006-04
1 40633U 24537ZF  26037.47810185  .00000000  00000+0  00000-0 0  9998
2 40633  65.0000 150.0000 0000000   0.0000 168.0000  2.02645302    15
CTC1_L_00666006-05
1 40634U 22794AO  26037.47810185  .00000000  00000+0  00000-0 0  9992
2 40634  65.0000 150.0000 0000000   0.0000 204.0000  2.02645302    17
CTC1_L_00666006-06
1 40635U 22488PR  26037.47810185  .00000000  00000+0  00000-0 0  9993
2 40635  65.0000 150.0000 0000000   0.0000 240.0000  2.02645302    18
CTC1_L_00666006-07
1 40636U 23495SJ  26037.47810185  .00000000  00000+0  00000-0 0  9993
2 40636  65.0000 150.0000 0000000   0.0000 276.0000  2.02645302    18
CTC1_L_00666006-08
1 40637U 22045IH  26037.47810185  .00000000  00000+0  00000-0 0  9994
2 40637  65.0000 150.0000 0000000   0.0000 312.0000  2.02645302    10
CTC1_L_00666006-09
1 40638U 26486GH  26037.47810185  .00000000  00000+0  00000-0 0  9998
2 40638  65.0000 150.0000 0000000   0.0000 348.0000  2.02645302    10
CTC1_L_00666006-10
1 40639U 22536KS  26037.47810185  .00000000  00000+0  00000-0 0  9991
2 40639  65.0000 150.0000 0000000   0.0000  24.0000  2.02645302    12
CTC1_L_00666007-01
1 40640U 24996EN  26037.47810185  .00000000  00000+0  00000-0 0  9995
2 40640  65.0000 180.0000 0000000   0.0000  72.0000  2.02645302    10
CTC1_L_00666007-02
1 40641U 23796ZK  26037.47810185  .00000000  00000+0  00000-0 0  9993
2 40641  65.0000 180.0000 0000000   0.0000 108.0000  2.02645302    11
